[{"OBJECT_NAME":"STARLINK-6183","OBJECT_ID":"2023-083AF","EPOCH":"2026-03-09T22:00:01.999584","MEAN_MOTION":15.10514117,"ECCENTRICITY":0.00016616,"INCLINATION":43.0003,"RA_OF_ASC_NODE":67.7507,"ARG_OF_PERICENTER":253.845,"MEAN_ANOMALY":52.3183,"EPHEMERIS_TYPE":0,"CLASSIFICATION_TYPE":"U","NORAD_CAT_ID":56905,"ELEMENT_SET_NO":999,"REV_AT_EPOCH":557,"BSTAR":0.0041494241,"MEAN_MOTION_DOT":0.0007004,"MEAN_MOTION_DDOT":0},{"OBJECT_NAME":"DIADEME 1","OBJECT_ID":"1967-011A","EPOCH":"2026-03-09T04:18:35.665344","MEAN_MOTION":14.73682571,"ECCENTRICITY":0.02083573,"INCLINATION":39.9159,"RA_OF_ASC_NODE":131.181,"ARG_OF_PERICENTER":280.4589,"MEAN_ANOMALY":77.2777,"EPHEMERIS_TYPE":0,"CLASSIFICATION_TYPE":"U","NORAD_CAT_ID":2674,"ELEMENT_SET_NO":999,"REV_AT_EPOCH":7534,"BSTAR":0.00083818809,"MEAN_MOTION_DOT":7.747e-5,"MEAN_MOTION_DDOT":0}]
